{
  "type": "FeatureCollection",
  "name": "Block_Boundary",
  "crs": {
    "type": "name",
    "properties": {
      "name": "urn:ogc:def:crs:OGC:1.3:CRS84"
    }
  },
  "features": [
    {
      "type": "Feature",
      "id": "BLK_001",
      "properties": {
        "block_code": "TN-BLK-001",
        "block_name": "St. Thomas Mount Block",
        "district": "Chengalpattu",
        "panchayats_count": 15,
        "rural_population": 210000,
        "area_sq_km": 125.4
      },
      "geometry": {
        "type": "Polygon",
        "coordinates": [
          [
            [
              80.14,
              12.92
            ],
            [
              80.22,
              12.92
            ],
            [
              80.22,
              13.0
            ],
            [
              80.14,
              13.0
            ],
            [
              80.14,
              12.92
            ]
          ]
        ]
      }
    },
    {
      "type": "Feature",
      "id": "BLK_002",
      "properties": {
        "block_code": "TN-BLK-002",
        "block_name": "Kattankulathur Block",
        "district": "Chengalpattu",
        "panchayats_count": 39,
        "rural_population": 185000,
        "area_sq_km": 240.2
      },
      "geometry": {
        "type": "Polygon",
        "coordinates": [
          [
            [
              80.0,
              12.78
            ],
            [
              80.08,
              12.78
            ],
            [
              80.08,
              12.86
            ],
            [
              80.0,
              12.86
            ],
            [
              80.0,
              12.78
            ]
          ]
        ]
      }
    },
    {
      "type": "Feature",
      "id": "BLK_003",
      "properties": {
        "block_code": "TN-BLK-003",
        "block_name": "Villivakkam Block",
        "district": "Tiruvallur",
        "panchayats_count": 13,
        "rural_population": 142000,
        "area_sq_km": 110.8
      },
      "geometry": {
        "type": "Polygon",
        "coordinates": [
          [
            [
              80.11,
              13.08
            ],
            [
              80.19,
              13.08
            ],
            [
              80.19,
              13.16
            ],
            [
              80.11,
              13.16
            ],
            [
              80.11,
              13.08
            ]
          ]
        ]
      }
    },
    {
      "type": "Feature",
      "id": "BLK_004",
      "properties": {
        "block_code": "TN-BLK-004",
        "block_name": "Periyanayakkanpalayam Block",
        "district": "Coimbatore",
        "panchayats_count": 9,
        "rural_population": 168000,
        "area_sq_km": 195.0
      },
      "geometry": {
        "type": "Polygon",
        "coordinates": [
          [
            [
              76.89,
              11.1
            ],
            [
              76.97,
              11.1
            ],
            [
              76.97,
              11.18
            ],
            [
              76.89,
              11.18
            ],
            [
              76.89,
              11.1
            ]
          ]
        ]
      }
    },
    {
      "type": "Feature",
      "id": "BLK_005",
      "properties": {
        "block_code": "TN-BLK-005",
        "block_name": "Thondamuthur Block",
        "district": "Coimbatore",
        "panchayats_count": 10,
        "rural_population": 145000,
        "area_sq_km": 215.6
      },
      "geometry": {
        "type": "Polygon",
        "coordinates": [
          [
            [
              76.78,
              10.94
            ],
            [
              76.86,
              10.94
            ],
            [
              76.86,
              11.02
            ],
            [
              76.78,
              11.02
            ],
            [
              76.78,
              10.94
            ]
          ]
        ]
      }
    }
  ]
}