{
  "type": "FeatureCollection",
  "name": "Bus_shelter_Locations",
  "crs": {
    "type": "name",
    "properties": {
      "name": "urn:ogc:def:crs:OGC:1.3:CRS84"
    }
  },
  "features": [
    {
      "type": "Feature",
      "id": "BS_001",
      "properties": {
        "shelter_id": "BS_001",
        "bus_stop_name": "Central Railway Station Bus Stop",
        "corridor_road": "Poonamallee High Road",
        "shelter_type": "Stainless Steel Modern Shelter / Digital Display",
        "routes_served": "15B, 17D, 27B, 11G, 54, 570",
        "depot": "Central Depot"
      },
      "geometry": {
        "type": "Point",
        "coordinates": [
          80.274,
          13.082
        ]
      }
    },
    {
      "type": "Feature",
      "id": "BS_002",
      "properties": {
        "shelter_id": "BS_002",
        "bus_stop_name": "Anna Flyover / Gemini Stop",
        "corridor_road": "Anna Salai (Mount Road)",
        "shelter_type": "Stainless Steel Modern Shelter / Digital Display",
        "routes_served": "18A, 23C, 29C, 51A, A1",
        "depot": "Teynampet Depot"
      },
      "geometry": {
        "type": "Point",
        "coordinates": [
          80.251,
          13.052
        ]
      }
    },
    {
      "type": "Feature",
      "id": "BS_003",
      "properties": {
        "shelter_id": "BS_003",
        "bus_stop_name": "T. Nagar Panagal Park Bus Stand",
        "corridor_road": "Usman Road",
        "shelter_type": "Stainless Steel Modern Shelter / Digital Display",
        "routes_served": "47A, 47D, 12B, 11H, 29C",
        "depot": "T. Nagar Depot"
      },
      "geometry": {
        "type": "Point",
        "coordinates": [
          80.231,
          13.04
        ]
      }
    },
    {
      "type": "Feature",
      "id": "BS_004",
      "properties": {
        "shelter_id": "BS_004",
        "bus_stop_name": "Adyar Signal Bus Stop",
        "corridor_road": "Lattice Bridge Road / Sardar Patel Road",
        "shelter_type": "Stainless Steel Modern Shelter / Digital Display",
        "routes_served": "29C, 5E, 23C, 570, 19B",
        "depot": "Adyar Depot"
      },
      "geometry": {
        "type": "Point",
        "coordinates": [
          80.258,
          13.006
        ]
      }
    },
    {
      "type": "Feature",
      "id": "BS_005",
      "properties": {
        "shelter_id": "BS_005",
        "bus_stop_name": "Koyambedu CMBT Arterial Stop",
        "corridor_road": "Jawaharlal Nehru Road (100 Ft Rd)",
        "shelter_type": "Stainless Steel Modern Shelter / Digital Display",
        "routes_served": "153, 570, 70, 114, 27C",
        "depot": "Koyambedu Depot"
      },
      "geometry": {
        "type": "Point",
        "coordinates": [
          80.205,
          13.069
        ]
      }
    },
    {
      "type": "Feature",
      "id": "BS_006",
      "properties": {
        "shelter_id": "BS_006",
        "bus_stop_name": "Coimbatore Gandhipuram Central Bus Shelter",
        "corridor_road": "Dr. Nanjappa Road",
        "shelter_type": "Stainless Steel Modern Shelter / Digital Display",
        "routes_served": "1C, 7C, 11A, 22, 70",
        "depot": "Gandhipuram Depot"
      },
      "geometry": {
        "type": "Point",
        "coordinates": [
          76.968,
          11.017
        ]
      }
    }
  ]
}