{
  "type": "FeatureCollection",
  "name": "Chennai_Region_Boundary",
  "crs": {
    "type": "name",
    "properties": {
      "name": "urn:ogc:def:crs:OGC:1.3:CRS84"
    }
  },
  "features": [
    {
      "type": "Feature",
      "id": "CMA_BOUNDARY_1189SQKM",
      "properties": {
        "entity": "Chennai Metropolitan Area (CMA)",
        "planning_authority": "Chennai Metropolitan Development Authority (CMDA)",
        "area_sq_km": 1189.0,
        "includes": "Chennai District + parts of Tiruvallur, Kanchipuram, Chengalpattu Districts",
        "master_plan": "Third Master Plan for CMA (2026-2046)"
      },
      "geometry": {
        "type": "Polygon",
        "coordinates": [
          [
            [
              80.12,
              13.34
            ],
            [
              80.36,
              13.31
            ],
            [
              80.38,
              13.12
            ],
            [
              80.31,
              12.8
            ],
            [
              80.18,
              12.72
            ],
            [
              79.98,
              12.79
            ],
            [
              79.92,
              13.05
            ],
            [
              80.01,
              13.28
            ],
            [
              80.12,
              13.34
            ]
          ]
        ]
      }
    }
  ]
}