{
  "type": "FeatureCollection",
  "name": "CMWSSB_Sewerage_Pumping_Stations",
  "crs": {
    "type": "name",
    "properties": {
      "name": "urn:ogc:def:crs:OGC:1.3:CRS84"
    }
  },
  "features": [
    {
      "type": "Feature",
      "id": "CMWSSB_SPS_01",
      "properties": {
        "station_id": "SPS-TN-01",
        "sps_name": "Purasawalkam SPS Sewage Pumping Station",
        "pumping_capacity_mld": 45.0,
        "generators_standby_kva": 750,
        "scada_connected": true,
        "authority": "CMWSSB Sewerage Infrastructure Wing"
      },
      "geometry": {
        "type": "Point",
        "coordinates": [
          80.254,
          13.091
        ]
      }
    },
    {
      "type": "Feature",
      "id": "CMWSSB_SPS_02",
      "properties": {
        "station_id": "SPS-TN-02",
        "sps_name": "T. Nagar North SPS Sewage Pumping Station",
        "pumping_capacity_mld": 60.0,
        "generators_standby_kva": 1000,
        "scada_connected": true,
        "authority": "CMWSSB Sewerage Infrastructure Wing"
      },
      "geometry": {
        "type": "Point",
        "coordinates": [
          80.238,
          13.048
        ]
      }
    },
    {
      "type": "Feature",
      "id": "CMWSSB_SPS_03",
      "properties": {
        "station_id": "SPS-TN-03",
        "sps_name": "Adyar Greenways SPS Sewage Pumping Station",
        "pumping_capacity_mld": 55.0,
        "generators_standby_kva": 1000,
        "scada_connected": true,
        "authority": "CMWSSB Sewerage Infrastructure Wing"
      },
      "geometry": {
        "type": "Point",
        "coordinates": [
          80.262,
          13.018
        ]
      }
    },
    {
      "type": "Feature",
      "id": "CMWSSB_SPS_04",
      "properties": {
        "station_id": "SPS-TN-04",
        "sps_name": "Velachery Main Road SPS Sewage Pumping Station",
        "pumping_capacity_mld": 40.0,
        "generators_standby_kva": 625,
        "scada_connected": true,
        "authority": "CMWSSB Sewerage Infrastructure Wing"
      },
      "geometry": {
        "type": "Point",
        "coordinates": [
          80.22,
          12.982
        ]
      }
    },
    {
      "type": "Feature",
      "id": "CMWSSB_SPS_05",
      "properties": {
        "station_id": "SPS-TN-05",
        "sps_name": "Anna Nagar Central SPS Sewage Pumping Station",
        "pumping_capacity_mld": 50.0,
        "generators_standby_kva": 750,
        "scada_connected": true,
        "authority": "CMWSSB Sewerage Infrastructure Wing"
      },
      "geometry": {
        "type": "Point",
        "coordinates": [
          80.21,
          13.088
        ]
      }
    }
  ]
}