{
  "type": "FeatureCollection",
  "name": "Community_Skill_School_CSS",
  "crs": {
    "type": "name",
    "properties": {
      "name": "urn:ogc:def:crs:OGC:1.3:CRS84"
    }
  },
  "features": [
    {
      "type": "Feature",
      "id": "CSS_01",
      "properties": {
        "center_id": "CSS-TN-01",
        "center_name": "Guindy Urban Skill Academy",
        "implementing_agency": "Tamil Nadu Skill Development Corporation (TNSDC)",
        "vocational_trades": "CNC Machining, Industrial Automation, EV Servicing",
        "youth_certified_annual": 750,
        "placement_rate_pct": 88.5
      },
      "geometry": {
        "type": "Point",
        "coordinates": [
          80.208,
          13.011
        ]
      }
    },
    {
      "type": "Feature",
      "id": "CSS_02",
      "properties": {
        "center_id": "CSS-TN-02",
        "center_name": "Ambattur Manufacturing Skill Center",
        "implementing_agency": "Tamil Nadu Skill Development Corporation (TNSDC)",
        "vocational_trades": "Tool & Die Making, Precision Welding, Robotics",
        "youth_certified_annual": 620,
        "placement_rate_pct": 86.0
      },
      "geometry": {
        "type": "Point",
        "coordinates": [
          80.158,
          13.102
        ]
      }
    },
    {
      "type": "Feature",
      "id": "CSS_03",
      "properties": {
        "center_id": "CSS-TN-03",
        "center_name": "Coimbatore Textile & Apparel Skill Center",
        "implementing_agency": "Tamil Nadu Skill Development Corporation (TNSDC)",
        "vocational_trades": "Garment CAD, High-speed Stitching, Quality Audit",
        "youth_certified_annual": 890,
        "placement_rate_pct": 91.2
      },
      "geometry": {
        "type": "Point",
        "coordinates": [
          76.985,
          11.032
        ]
      }
    },
    {
      "type": "Feature",
      "id": "CSS_04",
      "properties": {
        "center_id": "CSS-TN-04",
        "center_name": "Coimbatore Foundry & Auto Skill Center",
        "implementing_agency": "Tamil Nadu Skill Development Corporation (TNSDC)",
        "vocational_trades": "Pattern Making, Foundry Tech, EV Powertrain",
        "youth_certified_annual": 540,
        "placement_rate_pct": 84.5
      },
      "geometry": {
        "type": "Point",
        "coordinates": [
          77.012,
          11.015
        ]
      }
    }
  ]
}