{
  "type": "FeatureCollection",
  "name": "Corporations",
  "crs": {
    "type": "name",
    "properties": {
      "name": "urn:ogc:def:crs:OGC:1.3:CRS84"
    }
  },
  "features": [
    {
      "type": "Feature",
      "id": "CORP_01",
      "properties": {
        "corp_id": "CORP-TN-01",
        "city_name": "Chennai",
        "corporation_title": "Greater Chennai Corporation (GCC)",
        "area_sq_km": 426.0,
        "population_census2011": 4646732,
        "established_year": 1688,
        "administrative_zones": 5,
        "state": "Tamil Nadu"
      },
      "geometry": {
        "type": "Polygon",
        "coordinates": [
          [
            [
              80.2207,
              13.0427
            ],
            [
              80.3207,
              13.0427
            ],
            [
              80.3207,
              13.1227
            ],
            [
              80.2207,
              13.1227
            ],
            [
              80.2207,
              13.0427
            ]
          ]
        ]
      }
    },
    {
      "type": "Feature",
      "id": "CORP_02",
      "properties": {
        "corp_id": "CORP-TN-02",
        "city_name": "Coimbatore",
        "corporation_title": "Coimbatore City Municipal Corporation (CCMC)",
        "area_sq_km": 257.0,
        "population_census2011": 1601438,
        "established_year": 1981,
        "administrative_zones": 5,
        "state": "Tamil Nadu"
      },
      "geometry": {
        "type": "Polygon",
        "coordinates": [
          [
            [
              76.9058,
              10.9768
            ],
            [
              77.0058,
              10.9768
            ],
            [
              77.0058,
              11.0568
            ],
            [
              76.9058,
              11.0568
            ],
            [
              76.9058,
              10.9768
            ]
          ]
        ]
      }
    },
    {
      "type": "Feature",
      "id": "CORP_03",
      "properties": {
        "corp_id": "CORP-TN-03",
        "city_name": "Madurai",
        "corporation_title": "Madurai City Municipal Corporation",
        "area_sq_km": 147.9,
        "population_census2011": 1561129,
        "established_year": 1971,
        "administrative_zones": 5,
        "state": "Tamil Nadu"
      },
      "geometry": {
        "type": "Polygon",
        "coordinates": [
          [
            [
              78.0698,
              9.8852
            ],
            [
              78.1698,
              9.8852
            ],
            [
              78.1698,
              9.9652
            ],
            [
              78.0698,
              9.9652
            ],
            [
              78.0698,
              9.8852
            ]
          ]
        ]
      }
    },
    {
      "type": "Feature",
      "id": "CORP_04",
      "properties": {
        "corp_id": "CORP-TN-04",
        "city_name": "Tiruchirappalli",
        "corporation_title": "Tiruchirappalli City Municipal Corporation",
        "area_sq_km": 167.2,
        "population_census2011": 916857,
        "established_year": 1994,
        "administrative_zones": 5,
        "state": "Tamil Nadu"
      },
      "geometry": {
        "type": "Polygon",
        "coordinates": [
          [
            [
              78.6547,
              10.7505
            ],
            [
              78.7547,
              10.7505
            ],
            [
              78.7547,
              10.8305
            ],
            [
              78.6547,
              10.8305
            ],
            [
              78.6547,
              10.7505
            ]
          ]
        ]
      }
    },
    {
      "type": "Feature",
      "id": "CORP_05",
      "properties": {
        "corp_id": "CORP-TN-05",
        "city_name": "Salem",
        "corporation_title": "Salem City Municipal Corporation",
        "area_sq_km": 91.3,
        "population_census2011": 829267,
        "established_year": 1994,
        "administrative_zones": 4,
        "state": "Tamil Nadu"
      },
      "geometry": {
        "type": "Polygon",
        "coordinates": [
          [
            [
              78.096,
              11.6243
            ],
            [
              78.196,
              11.6243
            ],
            [
              78.196,
              11.7043
            ],
            [
              78.096,
              11.7043
            ],
            [
              78.096,
              11.6243
            ]
          ]
        ]
      }
    },
    {
      "type": "Feature",
      "id": "CORP_06",
      "properties": {
        "corp_id": "CORP-TN-06",
        "city_name": "Tiruppur",
        "corporation_title": "Tiruppur City Municipal Corporation",
        "area_sq_km": 159.3,
        "population_census2011": 877778,
        "established_year": 2008,
        "administrative_zones": 5,
        "state": "Tamil Nadu"
      },
      "geometry": {
        "type": "Polygon",
        "coordinates": [
          [
            [
              77.2911,
              11.0685
            ],
            [
              77.3911,
              11.0685
            ],
            [
              77.3911,
              11.1485
            ],
            [
              77.2911,
              11.1485
            ],
            [
              77.2911,
              11.0685
            ]
          ]
        ]
      }
    },
    {
      "type": "Feature",
      "id": "CORP_07",
      "properties": {
        "corp_id": "CORP-TN-07",
        "city_name": "Erode",
        "corporation_title": "Erode City Municipal Corporation",
        "area_sq_km": 109.5,
        "population_census2011": 498121,
        "established_year": 2008,
        "administrative_zones": 5,
        "state": "Tamil Nadu"
      },
      "geometry": {
        "type": "Polygon",
        "coordinates": [
          [
            [
              77.6672,
              11.301
            ],
            [
              77.7672,
              11.301
            ],
            [
              77.7672,
              11.381
            ],
            [
              77.6672,
              11.381
            ],
            [
              77.6672,
              11.301
            ]
          ]
        ]
      }
    },
    {
      "type": "Feature",
      "id": "CORP_08",
      "properties": {
        "corp_id": "CORP-TN-08",
        "city_name": "Tirunelveli",
        "corporation_title": "Tirunelveli City Municipal Corporation",
        "area_sq_km": 108.6,
        "population_census2011": 473637,
        "established_year": 1994,
        "administrative_zones": 5,
        "state": "Tamil Nadu"
      },
      "geometry": {
        "type": "Polygon",
        "coordinates": [
          [
            [
              77.7067,
              8.6739
            ],
            [
              77.8067,
              8.6739
            ],
            [
              77.8067,
              8.7539
            ],
            [
              77.7067,
              8.7539
            ],
            [
              77.7067,
              8.6739
            ]
          ]
        ]
      }
    },
    {
      "type": "Feature",
      "id": "CORP_09",
      "properties": {
        "corp_id": "CORP-TN-09",
        "city_name": "Vellore",
        "corporation_title": "Vellore City Municipal Corporation",
        "area_sq_km": 87.9,
        "population_census2011": 503746,
        "established_year": 2008,
        "administrative_zones": 4,
        "state": "Tamil Nadu"
      },
      "geometry": {
        "type": "Polygon",
        "coordinates": [
          [
            [
              79.0825,
              12.8765
            ],
            [
              79.1825,
              12.8765
            ],
            [
              79.1825,
              12.9565
            ],
            [
              79.0825,
              12.9565
            ],
            [
              79.0825,
              12.8765
            ]
          ]
        ]
      }
    },
    {
      "type": "Feature",
      "id": "CORP_10",
      "properties": {
        "corp_id": "CORP-TN-10",
        "city_name": "Thoothukudi",
        "corporation_title": "Thoothukudi City Municipal Corporation",
        "area_sq_km": 90.6,
        "population_census2011": 411628,
        "established_year": 2008,
        "administrative_zones": 4,
        "state": "Tamil Nadu"
      },
      "geometry": {
        "type": "Polygon",
        "coordinates": [
          [
            [
              78.0848,
              8.7242
            ],
            [
              78.1848,
              8.7242
            ],
            [
              78.1848,
              8.8042
            ],
            [
              78.0848,
              8.8042
            ],
            [
              78.0848,
              8.7242
            ]
          ]
        ]
      }
    },
    {
      "type": "Feature",
      "id": "CORP_11",
      "properties": {
        "corp_id": "CORP-TN-11",
        "city_name": "Thanjavur",
        "corporation_title": "Thanjavur City Municipal Corporation",
        "area_sq_km": 128.5,
        "population_census2011": 322120,
        "established_year": 2014,
        "administrative_zones": 5,
        "state": "Tamil Nadu"
      },
      "geometry": {
        "type": "Polygon",
        "coordinates": [
          [
            [
              79.0878,
              10.747
            ],
            [
              79.1878,
              10.747
            ],
            [
              79.1878,
              10.827
            ],
            [
              79.0878,
              10.827
            ],
            [
              79.0878,
              10.747
            ]
          ]
        ]
      }
    },
    {
      "type": "Feature",
      "id": "CORP_12",
      "properties": {
        "corp_id": "CORP-TN-12",
        "city_name": "Dindigul",
        "corporation_title": "Dindigul City Municipal Corporation",
        "area_sq_km": 75.0,
        "population_census2011": 292512,
        "established_year": 2014,
        "administrative_zones": 4,
        "state": "Tamil Nadu"
      },
      "geometry": {
        "type": "Polygon",
        "coordinates": [
          [
            [
              77.9303,
              10.3273
            ],
            [
              78.0303,
              10.3273
            ],
            [
              78.0303,
              10.4073
            ],
            [
              77.9303,
              10.4073
            ],
            [
              77.9303,
              10.3273
            ]
          ]
        ]
      }
    },
    {
      "type": "Feature",
      "id": "CORP_13",
      "properties": {
        "corp_id": "CORP-TN-13",
        "city_name": "Hosur",
        "corporation_title": "Hosur City Municipal Corporation",
        "area_sq_km": 72.4,
        "population_census2011": 245000,
        "established_year": 2019,
        "administrative_zones": 4,
        "state": "Tamil Nadu"
      },
      "geometry": {
        "type": "Polygon",
        "coordinates": [
          [
            [
              77.7753,
              12.7009
            ],
            [
              77.8753,
              12.7009
            ],
            [
              77.8753,
              12.7809
            ],
            [
              77.7753,
              12.7809
            ],
            [
              77.7753,
              12.7009
            ]
          ]
        ]
      }
    },
    {
      "type": "Feature",
      "id": "CORP_14",
      "properties": {
        "corp_id": "CORP-TN-14",
        "city_name": "Nagercoil",
        "corporation_title": "Nagercoil City Municipal Corporation",
        "area_sq_km": 50.0,
        "population_census2011": 224849,
        "established_year": 2019,
        "administrative_zones": 4,
        "state": "Tamil Nadu"
      },
      "geometry": {
        "type": "Polygon",
        "coordinates": [
          [
            [
              77.3619,
              8.1433
            ],
            [
              77.4619,
              8.1433
            ],
            [
              77.4619,
              8.2233
            ],
            [
              77.3619,
              8.2233
            ],
            [
              77.3619,
              8.1433
            ]
          ]
        ]
      }
    },
    {
      "type": "Feature",
      "id": "CORP_15",
      "properties": {
        "corp_id": "CORP-TN-15",
        "city_name": "Avadi",
        "corporation_title": "Avadi City Municipal Corporation",
        "area_sq_km": 65.0,
        "population_census2011": 345996,
        "established_year": 2019,
        "administrative_zones": 4,
        "state": "Tamil Nadu"
      },
      "geometry": {
        "type": "Polygon",
        "coordinates": [
          [
            [
              80.051,
              13.0747
            ],
            [
              80.151,
              13.0747
            ],
            [
              80.151,
              13.1547
            ],
            [
              80.051,
              13.1547
            ],
            [
              80.051,
              13.0747
            ]
          ]
        ]
      }
    },
    {
      "type": "Feature",
      "id": "CORP_16",
      "properties": {
        "corp_id": "CORP-TN-16",
        "city_name": "Tambaram",
        "corporation_title": "Tambaram City Municipal Corporation",
        "area_sq_km": 87.6,
        "population_census2011": 960887,
        "established_year": 2021,
        "administrative_zones": 4,
        "state": "Tamil Nadu"
      },
      "geometry": {
        "type": "Polygon",
        "coordinates": [
          [
            [
              80.07,
              12.8849
            ],
            [
              80.17,
              12.8849
            ],
            [
              80.17,
              12.9649
            ],
            [
              80.07,
              12.9649
            ],
            [
              80.07,
              12.8849
            ]
          ]
        ]
      }
    },
    {
      "type": "Feature",
      "id": "CORP_17",
      "properties": {
        "corp_id": "CORP-TN-17",
        "city_name": "Kancheepuram",
        "corporation_title": "Kancheepuram City Municipal Corporation",
        "area_sq_km": 36.1,
        "population_census2011": 234409,
        "established_year": 2021,
        "administrative_zones": 4,
        "state": "Tamil Nadu"
      },
      "geometry": {
        "type": "Polygon",
        "coordinates": [
          [
            [
              79.6536,
              12.7942
            ],
            [
              79.7536,
              12.7942
            ],
            [
              79.7536,
              12.8742
            ],
            [
              79.6536,
              12.8742
            ],
            [
              79.6536,
              12.7942
            ]
          ]
        ]
      }
    },
    {
      "type": "Feature",
      "id": "CORP_18",
      "properties": {
        "corp_id": "CORP-TN-18",
        "city_name": "Karur",
        "corporation_title": "Karur City Municipal Corporation",
        "area_sq_km": 53.0,
        "population_census2011": 234144,
        "established_year": 2021,
        "administrative_zones": 4,
        "state": "Tamil Nadu"
      },
      "geometry": {
        "type": "Polygon",
        "coordinates": [
          [
            [
              78.0316,
              10.9201
            ],
            [
              78.1316,
              10.9201
            ],
            [
              78.1316,
              11.0001
            ],
            [
              78.0316,
              11.0001
            ],
            [
              78.0316,
              10.9201
            ]
          ]
        ]
      }
    },
    {
      "type": "Feature",
      "id": "CORP_19",
      "properties": {
        "corp_id": "CORP-TN-19",
        "city_name": "Cuddalore",
        "corporation_title": "Cuddalore City Municipal Corporation",
        "area_sq_km": 45.0,
        "population_census2011": 218500,
        "established_year": 2021,
        "administrative_zones": 4,
        "state": "Tamil Nadu"
      },
      "geometry": {
        "type": "Polygon",
        "coordinates": [
          [
            [
              79.7214,
              11.708
            ],
            [
              79.8214,
              11.708
            ],
            [
              79.8214,
              11.788
            ],
            [
              79.7214,
              11.788
            ],
            [
              79.7214,
              11.708
            ]
          ]
        ]
      }
    },
    {
      "type": "Feature",
      "id": "CORP_20",
      "properties": {
        "corp_id": "CORP-TN-20",
        "city_name": "Sivakasi",
        "corporation_title": "Sivakasi City Municipal Corporation",
        "area_sq_km": 53.6,
        "population_census2011": 234700,
        "established_year": 2021,
        "administrative_zones": 4,
        "state": "Tamil Nadu"
      },
      "geometry": {
        "type": "Polygon",
        "coordinates": [
          [
            [
              77.7474,
              9.4133
            ],
            [
              77.8474,
              9.4133
            ],
            [
              77.8474,
              9.4933
            ],
            [
              77.7474,
              9.4933
            ],
            [
              77.7474,
              9.4133
            ]
          ]
        ]
      }
    },
    {
      "type": "Feature",
      "id": "CORP_21",
      "properties": {
        "corp_id": "CORP-TN-21",
        "city_name": "Kumbakonam",
        "corporation_title": "Kumbakonam City Municipal Corporation",
        "area_sq_km": 48.0,
        "population_census2011": 222000,
        "established_year": 2021,
        "administrative_zones": 4,
        "state": "Tamil Nadu"
      },
      "geometry": {
        "type": "Polygon",
        "coordinates": [
          [
            [
              79.328,
              10.9202
            ],
            [
              79.428,
              10.9202
            ],
            [
              79.428,
              11.0002
            ],
            [
              79.328,
              11.0002
            ],
            [
              79.328,
              10.9202
            ]
          ]
        ]
      }
    }
  ]
}